CZ-2D R/B               
1 28738U 05024B   26082.94234648  .00044356  00000+0  51923-3 0  9991
2 28738  97.3586  98.6244 0003204   3.6364 356.4916 15.61429720142000
ALOS (DAICHI)           
1 28931U 06002A   26082.59462927  .00001324  00000+0  22984-3 0  9990
2 28931  98.1242  38.4826 0000710  94.4475 265.6812 14.69850820 75525
H-2A R/B                
1 28932U 06002B   26082.92673378  .00009881  00000+0  49037-3 0  9996
2 28932  98.2443 231.1802 0052278 192.1274 167.8702 15.16725804 96592
RESURS-DK 1             
1 29228U 06021A   26082.75165195  .00002715  00000+0  16023-3 0  9998
2 29228  69.9339 200.6470 0000713  89.5327 270.5921 15.12835410 89652
CZ-4B R/B               
1 29507U 06046C   26082.92310447  .00005290  00000+0  26734-3 0  9997
2 29507  97.5564 127.7932 0032278 215.8566 144.0501 15.17045680 62209
CZ-2C R/B               
1 31114U 07010B   26082.88638879  .00000130  00000+0  78998-4 0  9991
2 31114  98.3993 195.4546 0057910 252.5152 106.9691 14.20251087981731
COSMO-SKYMED 1          
1 31598U 07023A   26082.97246647  .00002918  00000+0  26118-3 0  9991
2 31598  97.8880 274.1209 0001093  87.9139 272.2208 14.96639429 17041
COSMOS 2428             
1 31792U 07029A   26082.69371954 -.00000003  00000+0  24057-4 0  9997
2 31792  70.9441 173.9519 0009616 262.7406  97.2622 14.12947956966077
SL-16 R/B               
1 31793U 07029B   26082.93778736  .00000231  00000+0  14470-3 0  9993
2 31793  70.9755 142.4358 0002508 277.0275 255.5701 14.14841774967389
KORONAS-FOTON           
1 33504U 09003A   26082.96211950  .00014394  00000+0  31747-3 0  9993
2 33504  82.4278 261.0326 0011818 103.3625 256.8941 15.43688875947940
CZ-2C R/B               
1 37731U 11030B   26082.79000355  .00001474  00000+0  19186-3 0  9996
2 37731  97.8569  39.7735 0051318 305.5958  73.9517 14.81270605792187
H-2A R/B                
1 38341U 12025E   26082.91570954  .00003607  00000+0  32806-3 0  9994
2 38341  98.4755  51.1038 0042826 266.0708  93.5613 14.95263760750347
SHIJIAN-16 (SJ-16)      
1 39358U 13057A   26082.97505978  .00003820  00000+0  37484-3 0  9993
2 39358  74.9727 158.0458 0015181  75.3179 284.9690 14.92409667673636
SL-4 R/B                
1 39679U 14021B   26082.84569418  .00018225  00000+0  39501-3 0  9993
2 39679  51.6055 268.1929 0096239 154.5706 206.0060 15.39647246658451
ALOS-2                  
1 39766U 14029A   26082.92150410  .00000947  00000+0  13382-3 0  9996
2 39766  97.9189 181.3117 0001873 107.6679 252.4737 14.79426719638976
YAOGAN-29               
1 41038U 15069A   26082.96355418  .00000768  00000+0  10119-3 0  9991
2 41038  98.0120 111.4297 0000873  12.0769 348.0465 14.83010760557991
ASTRO-H (HITOMI)        
1 41337U 16012A   26082.77965407  .00002970  00000+0  17213-3 0  9995
2 41337  30.9989 265.6163 0009603 113.2073 246.9577 15.10090163554361
HXMT (HUIYAN)           
1 42758U 17034A   26082.92865065  .00005629  00000+0  28253-3 0  9994
2 42758  43.0145 297.5003 0032555 322.7405  37.1185 15.17644643484703
SAOCOM 1A               
1 43641U 18076A   26082.93773684  .00000886  00000+0  11780-3 0  9996
2 43641  97.8897 270.9092 0001452  86.8963 273.2416 14.82156118403479
H-2A R/B                
1 43682U 18084L   26082.94724902  .00020233  00000+0  47257-3 0  9996
2 43682  98.8706 303.3880 0024153 335.9136  24.0975 15.41945139407979
SAOCOM 1B               
1 46265U 20059A   26082.96895897  .00000715  00000+0  96367-4 0  9995
2 46265  97.8898 270.0380 0001527  85.4431 274.6956 14.82152551300864
CSS (TIANHE)            
1 48274U 21035A   26082.79038547  .00023990  00000+0  27624-3 0  9993
2 48274  41.4662 122.3160 0004876   5.1378 354.9510 15.61400224279813
COSMOS 2550             
1 48865U 21056A   26079.66782363 -.00000188  00000+0  12540-6 0  9995
2 48865  67.1449   7.6743 0008200 268.9234  91.0981 15.33831865265144
CZ-2C R/B               
1 52794U 22058K   26082.78053936  .00036312  00000+0  51075-3 0  9998
2 52794  50.1878 245.7487 0041667 261.0404  98.5850 15.55242660212327
CZ-2C R/B               
1 54039U 22132E   26082.97340210  .00046290  00000+0  50219-3 0  9995
2 54039  97.2964  86.7380 0018708  45.7338 314.5452 15.63169879192603
GSLV R/B                
1 54149U 22138AN  26082.96060051  .00003717  00000+0  31994-3 0  9990
2 54149  87.3866 161.5855 0024107  99.3383 261.0576 14.96867127186062
XRISM                   
1 57800U 23137A   26082.96989851  .00006019  00000+0  33946-3 0  9992
2 57800  31.0011 191.2852 0007949 183.2958 176.7629 15.11658756139951
ACS3                    
1 59588U 24077B   26082.82346240  .00018198  00000+0  14403-1 0  9991
2 59588  97.1999  20.7592 0070362  43.6500 317.0200 13.90229298 96162
SZ-21 MODULE            
1 66515U 25246C   26082.18487837  .00043706  00000+0  35991-3 0  9995
2 66515  41.4734 120.2206 0000654 218.7155 141.3640 15.69572241 20198
